GOMX-1                  
1 39430U 13066Q   24141.50815484  .00005843  00000+0  97364-3 0  9993
2 39430  97.7367  17.5637 0139924 341.5223  18.0927 14.64044033558810
CUBEBUG-2 (LO-74)       
1 39440U 13066AA  24141.38346869  .00009925  00000+0  11723-2 0  9995
2 39440  97.8117  85.6599 0070469   6.7244 353.4899 14.83083207564211
NEE-02 KRYSAOR          
1 39441U 13066AB  24141.38392952  .00007126  00000+0  90513-3 0  9996
2 39441  97.8213  81.6388 0075455  27.6741 332.8455 14.79939369563824
FUNCUBE-1 (AO-73)       
1 39444U 13066AE  24141.44659770  .00010507  00000+0  10264-2 0  9991
2 39444  97.7175 101.1029 0046651 231.5950 128.1075 14.91742975565978
UWE-3                   
1 39446U 13066AG  24141.37388267  .00008345  00000+0  93433-3 0  9992
2 39446  97.7793  91.7163 0059355 312.2789  47.3402 14.85839515564572
BRITE-CA1 (TORONTO)     
1 40020U 14033L   24141.37364945  .00003968  00000+0  64504-3 0  9997
2 40020  97.8729 279.4843 0083388 180.0546 180.0665 14.69326075530783
DUCHIFAT-1              
1 40021U 14033M   24141.53700066  .00019977  00000+0  13517-2 0  9998
2 40021  98.0894 123.9699 0012997 182.5866 177.5295 15.06492875539965
NANOSATC-BR1            
1 40024U 14033Q   24141.44770418  .00015862  00000+0  11890-2 0  9990
2 40024  98.0631 112.4148 0003788 255.0169 105.0636 15.02765288539084
QB50P1                  
1 40025U 14033R   24141.45832380  .00011326  00000+0  93006-3 0  9990
2 40025  98.0415 101.3225 0008000 250.5280 109.5078 14.99343198538720
QB50P2                  
1 40032U 14033Y   24141.40340797  .00011416  00000+0  96923-3 0  9990
2 40032  98.0043  93.1317 0008080 240.2060 119.8359 14.98050371538515
PERSEUS-M2              
1 40037U 14033AD  24141.50016577  .00004886  00000+0  50763-3 0  9997
2 40037  97.9270  72.1964 0011544 289.4488  70.5482 14.90336912537703
PERSEUS-M1              
1 40039U 14033AF  24141.31971622  .00004477  00000+0  46840-3 0  9996
2 40039  97.9071  68.1503 0011475 289.1828  70.8147 14.90099572537536
POLYITAN-1              
1 40042U 14033AJ  24141.44405277  .00016734  00000+0  12805-2 0  9994
2 40042  98.0682 104.6014 0012582 222.9948 137.0293 15.01911630538676
TIGRISAT                
1 40043U 14033AK  24141.39823508  .00005264  00000+0  70411-3 0  9994
2 40043  97.6927 305.3373 0056154  35.4275 325.0647 14.78781422533354
AEROCUBE 6A             
1 40045U 14033AM  24141.46928781  .00009014  00000+0  10855-2 0  9995
2 40045  97.6682 316.0551 0050734  14.1911 346.0715 14.83164657533686
AEROCUBE 6B             
1 40046U 14033AN  24141.45381105  .00009078  00000+0  10719-2 0  9997
2 40046  97.6646 314.7208 0049279   9.8335 350.3832 14.84028708533735
UKUBE-1                 
1 40074U 14037F   24141.33398989  .00012484  00000+0  11934-2 0  9992
2 40074  98.3424  69.5557 0005001 143.1833 216.9729 14.93392597534621
BRITE-PL2 (HEWELIUSZ)   
1 40119U 14049B   24141.25857350  .00004675  00000+0  50498-3 0  9990
2 40119  97.8807 241.0568 0017216  96.7658 263.5519 14.88718253528429
CP10 (EXOCUBE)          
1 40380U 15003E   24140.99411609  .00271614  00000+0  14385-2 0  9997
2 40380  99.0926 159.0065 0039288 204.0306 155.9123 15.78691468514970
AEROCUBE 5C             
1 40965U 15058B   24141.14030146  .00011158  00000+0  10245-2 0  9993
2 40965  64.7699  87.7481 0188763 316.7980  41.8447 14.82583551252884
AEROCUBE 7              
1 40966U 15058C   24141.19017076  .00012686  00000+0  11245-2 0  9994
2 40966  64.7683  81.6200 0183775 316.4205  42.2507 14.84404749252958
FOX-1A (AO-85)          
1 40967U 15058D   24141.25680943  .00010285  00000+0  96248-3 0  9991
2 40967  64.7772 101.1442 0188521 312.5677  45.9649 14.81965804   856
BISONSAT                
1 40968U 15058E   24141.26578312  .00013054  00000+0  11735-2 0  9993
2 40968  64.7773  94.1481 0183503 311.5623  46.9873 14.83902381  3673
SNAP-3 ALICE            
1 40970U 15058G   24141.15795423  .00026041  00000+0  18392-2 0  9994
2 40970  64.7727  53.3964 0154917 309.5449  49.2059 14.95616855  1590
LMRST-SAT               
1 40971U 15058H   24141.16318949  .00009734  00000+0  90994-3 0  9999
2 40971  64.7761  96.9578 0189489 313.9842  44.5771 14.81927008   847
SNAP-3 EDDIE            
1 40972U 15058J   24141.17469588  .00024323  00000+0  16987-2 0  9997
2 40972  64.7708  46.8104 0155353 310.4528  48.3123 14.95993518  3697
PROPCUBE 3              
1 40973U 15058K   24141.15516694  .00011498  00000+0  10335-2 0  9997
2 40973  64.7713  85.0613 0185886 315.3236  43.3020 14.83696338  1874
SINOD-D 1               
1 40974U 15058L   24141.07228673  .00021969  00000+0  17062-2 0  9994
2 40974  64.7697  60.6642 0168004 313.0182  45.6954 14.90802734  1570
SNAP-3 JIMI             
1 40975U 15058M   24141.16683152  .00014864  00000+0  12549-2 0  9993
2 40975  64.7704  73.5169 0178257 314.2772  44.3826 14.86756042   866
PROPCUBE 1 (FLORA)      
1 40976U 15058N   24141.27113902  .00009877  00000+0  95843-3 0  9994
2 40976  64.7748 111.8990 0187438 315.1912  43.4184 14.80777484  3665
SINOD-D 3               
1 40977U 15058P   24141.29749125  .00012636  00000+0  11787-2 0  9990
2 40977  64.7745 105.3913 0182375 314.3646  44.2641 14.82692567  1896
VELOX-II                
1 41171U 15077F   24141.59238760  .00191297  00000+0  18349-2 0  9991
2 41171  14.9883 273.0016 0004669  59.9026 300.1764 15.64598621467447
HORYU-4                 
1 41340U 16012D   24141.35586745  .00017528  00000+0  88922-3 0  9991
2 41340  31.0010 156.9036 0009273  51.4983 308.6487 15.15720583453926
RAVAN                   
1 41849U 16067B   24141.48224763  .00016411  00000+0  91636-3 0  9994
2 41849  98.0633 317.5598 0014396 122.2179 238.0449 15.13530302411797
CELTEE 1                
1 41850U 16067C   24141.40115622  .00010384  00000+0  71226-3 0  9997
2 41850  98.1012 309.4810 0000352  88.1676 271.9590 15.06220588411244
OPTICUBE 04             
1 41851U 16067D   24141.45173847  .00006443  00000+0  48753-3 0  9996
2 41851  98.0752 305.2391 0019568 144.8549 215.3970 15.02543037411079
AEROCUBE 8D             
1 41852U 16067E   24141.41248767  .00012710  00000+0  84390-3 0  9998
2 41852  98.1055 309.1737 0005058 190.9504 169.1613 15.07363501411213
AEROCUBE 8C             
1 41853U 16067F   24141.42522505  .00012411  00000+0  82486-3 0  9997
2 41853  98.0855 307.8358 0008787 130.8318 229.3672 15.07312625411207
PROMETHEUS 2-1          
1 41854U 16067G   24141.44942421  .00025634  00000+0  13316-2 0  9999
2 41854  98.0981 314.7638 0013750 151.0584 209.1412 15.16003696411531
PROMETHEUS 2-3          
1 41855U 16067H   24141.44521326  .00025779  00000+0  13407-2 0  9998
2 41855  98.0908 314.2748 0011724 160.1779 199.9909 15.15984084411539
DIDO-2                  
1 42000U 17008BE  24141.59262848  .00218324  00000+0  11820-2 0  9991
2 42000  97.1345 202.3470 0005774 212.9388 147.1521 15.79457171404434
AALTO-1                 
1 42775U 17036L   24141.54345103  .00112847  00000+0  12279-2 0  9994
2 42775  97.1062 170.9195 0002348 283.6007  76.4990 15.63070530384782
URSA MAIOR              
1 42776U 17036M   24141.59804829  .00276501  00000+0  14924-2 0  9992
2 42776  97.1007 174.8302 0003920 222.4875 137.6090 15.79383851385036
CICERO 6                
1 42793U 17036AE  24141.58981104  .00511812  10382-3  15754-2 0  9999
2 42793  97.0749 179.2840 0004589 212.3031 147.7963 15.91775141385433
CORVUS BC2              
1 42846U 17042X   24141.46117361  .00007818  00000+0  67475-3 0  9994
2 42846  97.3740 328.1146 0009498 144.4259 215.7598 14.97478524373292
CORVUS BC1              
1 42847U 17042Y   24141.49182043  .00006129  00000+0  52805-3 0  9992
2 42847  97.3744 328.5436 0008763 142.1553 218.0287 14.97636188373315
MIRATA                  
1 43015U 17073C   24141.19096560  .00034510  00000+0  16550-2 0  9990
2 43015  97.6001  26.2738 0172565 357.3239   2.7048 15.06567900352116
MAKERSAT 0              
1 43016U 17073D   24140.63483833  .00027861  00000+0  15886-2 0  9994
2 43016  97.5849  20.4167 0198882  19.1565 341.7000 14.97461555351642
CORVUS BC3              
1 43118U 18004H   24141.22221054  .00409463  00000+0  15350-2 0  9991
2 43118  97.2817 226.6879 0005706 277.5796  82.4827 15.86862414354495
GOMX-4B                 
1 43196U 18015E   24141.42949015  .00072842  00000+0  88249-3 0  9990
2 43196  97.6060 312.9856 0007016  61.8196 298.3768 15.60391574351195
GOMX-4A                 
1 43197U 18015F   24141.48874941  .00113804  00000+0  92685-3 0  9995
2 43197  97.5967 317.7163 0004654  48.6306 311.5355 15.70285549351528
CICERO 10               
1 43690U 18088A   24141.35112944  .00159220  00000+0  11681-2 0  9995
2 43690  85.0140 199.3777 0002136  87.0072 273.1442 15.72666116307825
PROXIMA II              
1 43696U 18088G   24141.37186076  .08976418 -14898-5  61061-3 0  9999
2 43696  84.9868 191.8163 0011681 257.2382 102.7618 16.40402710308379
SIRION PATHFINDER-2     
1 43759U 18099B   24141.12491986  .00009579  00000+0  72553-3 0  9991
2 43759  97.5275 198.0630 0012005  27.9461 332.2407 15.02431908298293
CORVUS BC4              
1 43767U 18099K   24141.61215529  .00008970  00000+0  69103-3 0  9992
2 43767  97.5184 195.8323 0011947  90.3121 269.9473 15.01803568298255
MOVE-II                 
1 43780U 18099Y   24141.15793686  .00028202  00000+0  15223-2 0  9994
2 43780  97.5235 204.4259 0008038  84.0332 276.1816 15.14669847298685
SPACEBEE-7              
1 43816U 18099BL  24141.13028417  .00025686  00000+0  15433-2 0  9991
2 43816  97.5504 205.1833 0010042  32.7126 327.4724 15.10823067298173
SPACEBEE-6              
1 43818U 18099BN  24141.15282844  .00053889  00000+0  23770-2 0  9990
2 43818  97.5426 210.0965 0007833  36.1079 324.0684 15.21556028298640
